GPS BIIR-2  (PRN 13)    
1 24876C 97035A   20267.69756944 -.00000000  00000-0  00000-0 0  2677
2 24876  55.4592 180.3203 0043572  58.4396 329.5461  2.00561335    18
GPS BIIR-3  (PRN 11)    
1 25933C 99055A   20267.69756944 -.00000000  00000-0  00000-0 0  2676
2 25933  52.3441  25.7780 0156983 117.5411 210.2588  2.00557517    13
GPS BIIR-4  (PRN 20)    
1 26360C 00025A   20267.69756944 -.00000000  00000-0  00000-0 0  2670
2 26360  53.5886 105.0812 0055642 157.6150 209.9864  2.00564784    13
GPS BIIR-5  (PRN 28)    
1 26407C 00040A   20267.69756944  .00000000  00000-0  00000-0 0  2678
2 26407  55.9212 298.2936 0186771 280.0917  49.2481  2.00564802    17
GPS BIIR-8  (PRN 16)    
1 27663C 03005A   20267.69756944  .00000000  00000-0  00000-0 0  2677
2 27663  55.9758 298.0839 0114206  34.9561  56.5747  2.00575277    16
GPS BIIR-9  (PRN 21)    
1 27704C 03010A   20267.69756944 -.00000000  00000-0  00000-0 0  2670
2 27704  54.6945  48.9897 0239996 286.0461  56.5841  2.00405433    16
GPS BIIR-10 (PRN 22)    
1 28129C 03058A   20267.69756944 -.00000000  00000-0  00000-0 0  2674
2 28129  53.3988 107.7782 0069406 296.6332 310.2201  2.00557123    13
GPS BIIR-11 (PRN 19)    
1 28190C 04009A   20267.69756944  .00000000  00000-0  00000-0 0  2678
2 28190  56.2586 358.9015 0090171  98.9137 147.6469  2.00560669    12
GPS BIIR-13 (PRN 02)    
1 28474C 04045A   20267.69756944 -.00000000  00000-0  00000-0 0  2674
2 28474  55.0364  48.8986 0200796 268.0623 254.2772  2.00550921    18
GPS BIIRM-1 (PRN 17)    
1 28874C 05038A   20267.69756944  .00000000  00000-0  00000-0 0  2670
2 28874  56.3555 356.2973 0136992 266.3584 359.0519  2.00553977    10
GPS BIIRM-2 (PRN 31)    
1 29486C 06042A   20267.69756944  .00000000  00000-0  00000-0 0  2676
2 29486  54.8369 234.4512 0096760   7.9956 183.7999  2.00564831    17
GPS BIIRM-3 (PRN 12)    
1 29601C 06052A   20267.69756944  .00000000  00000-0  00000-0 0  2676
2 29601  55.9653 297.0044 0076807  66.1936 162.6541  2.00569368    13
GPS BIIRM-4 (PRN 15)    
1 32260C 07047A   20267.69756944 -.00000000  00000-0  00000-0 0  2677
2 32260  53.1970 166.7219 0126278  52.2269 315.6198  2.00553816    18
GPS BIIRM-5 (PRN 29)    
1 32384C 07062A   20267.69756944  .00000000  00000-0  00000-0 0  2670
2 32384  56.4546 356.9829 0014203 133.4973   4.4526  2.00555545    17
GPS BIIRM-6 (PRN 07)    
1 32711C 08012A   20267.69756944  .00000000  00000-0  00000-0 0  2670
2 32711  54.5852 233.5317 0143880 225.1786 200.8144  2.00566897    17
GPS BIIRM-8 (PRN 05)    
1 35752C 09043A   20267.69756944 -.00000000  00000-0  00000-0 0  2674
2 35752  54.6436 111.0549 0059271  48.5970  48.6894  2.00556149    12
GPS BIIF-1  (PRN 25)    
1 36585C 10022A   20267.69756944  .00000000  00000-0  00000-0 0  2677
2 36585  55.2395 292.9694 0089389  52.4879 148.4065  2.00556837    16
GPS BIIF-2  (PRN 01)    
1 37753C 11036A   20267.69756944 -.00000000  00000-0  00000-0 0  2672
2 37753  56.2449  53.4092 0099242  46.5495 242.0221  2.00560888    10
GPS BIIF-3  (PRN 24)    
1 38833C 12053A   20267.69756944  .00000000  00000-0  00000-0 0  2671
2 38833  53.6295 229.2838 0100010  37.7918 260.0482  2.00567215    19
GPS BIIF-4  (PRN 27)    
1 39166C 13023A   20267.69756944  .00000000  00000-0  00000-0 0  2679
2 39166  56.0127 352.9082 0082432  31.7153   6.8751  2.00564142    18
GPS BIIF-5  (PRN 30)    
1 39533C 14008A   20267.69756944  .00000000  00000-0  00000-0 0  2671
2 39533  53.7417 234.7277 0048526 201.7958 197.1125  2.00572776    14
GPS BIIF-6  (PRN 06)    
1 39741C 14026A   20267.69756944 -.00000000  00000-0  00000-0 0  2673
2 39741  56.2179  52.9366 0020094 291.9602 265.5463  2.00570337    10
GPS BIIF-7  (PRN 09)    
1 40105C 14045A   20267.69756944 -.00000000  00000-0  00000-0 0  2670
2 40105  54.5970 172.0275 0015764 102.1627  28.3302  2.00565846    13
GPS BIIF-8  (PRN 03)    
1 40294C 14068A   20267.69756944 -.00000000  00000-0  00000-0 0  2674
2 40294  55.3929 112.9759 0030539  47.2405 177.5714  2.00555707    14
GPS BIIF-9  (PRN 26)    
1 40534C 15013A   20267.69756944  .00000000  00000-0  00000-0 0  2671
2 40534  54.1523 290.8200 0049544   8.5593 118.7191  2.00562460    19
GPS BIIF-10 (PRN 08)    
1 40730C 15033A   20267.69756944  .00000000  00000-0  00000-0 0  2671
2 40730  55.5272 352.0347 0055085 353.8574  15.8668  2.00557908    15
GPS BIIF-11 (PRN 10)    
1 41019C 15062A   20267.69756944 -.00000000  00000-0  00000-0 0  2675
2 41019  55.3888 112.8045 0060369 209.3317 124.7917  2.00564362    14
GPS BIIF-12 (PRN 32)    
1 41328C 16007A   20267.69756944 -.00000000  00000-0  00000-0 0  2678
2 41328  54.8304 172.5395 0042761 221.6377  42.5005  2.00553210    19
GPS BIII-1  (PRN 04)    
1 43873C 18109A   20267.69756944 -.00000000  00000-0  00000-0 0  2670
2 43873  55.0117 174.8268 0009095 208.4923 312.7247  2.00568454    14
GPS BIII-2  (PRN 18)    
1 44506C 19056A   20267.69756944 -.00000000  00000-0  00000-0 0  2676
2 44506  55.3067  54.2937 0009947 170.8739 252.1996  2.00559318    19
GPS BIII-3  (PRN 23)    
1 45854C 20041A   20267.69756944 -.00000000  00000-0  00000-0 0  2679
2 45854  55.0980 111.5345 0008113 114.5680 245.4729  2.00570182    12
